KUIPER-00285            
1 68589U 26072S   26099.50362714  .00020440  00000+0  56126-3 0  9999
2 68589  51.8728 149.0916 0006527 123.1301 237.0313 15.37198204   818
KUIPER-00286            
1 68590U 26072T   26099.50213942  .00019286  00000+0  52325-3 0  9992
2 68590  51.8723 149.0813 0004280 104.9491 255.1970 15.37620751   819
KUIPER-00289            
1 68591U 26072U   26099.50816086  .00018145  00000+0  52031-3 0  9998
2 68591  51.8650 149.1255 0011064 138.2553 221.9279 15.35891916   811
KUIPER-00290            
1 68592U 26072V   26099.50784576  .00018320  00000+0  52367-3 0  9994
2 68592  51.8635 149.1238 0011061 134.7713 225.4175 15.35984232   810
KUIPER-00293            
1 68593U 26072W   26099.50909527  .00019522  00000+0  56351-3 0  9992
2 68593  51.8633 149.1311 0012054 140.9919 219.1939 15.35620815   813
KUIPER-00294            
1 68594U 26072X   26099.50711410  .00024641  00000+0  69623-3 0  9999
2 68594  51.8673 149.1185 0009887 135.7594 224.4184 15.36164003   812
KUIPER-00296            
1 68595U 26072Y   26099.50592729  .00016119  00000+0  45426-3 0  9996
2 68595  51.8694 149.1090 0008734 129.6166 230.5593 15.36547435   814
KUIPER-00297            
1 68596U 26072Z   26099.50754173  .00018132  00000+0  51708-3 0  9997
2 68596  51.8622 149.1220 0010385 136.1757 224.0055 15.36072717   812
KUIPER-00300            
1 68597U 26072AA  26099.50522254  .00016797  00000+0  47020-3 0  9998
2 68597  51.8667 149.1055 0008297 129.8474 230.3243 15.36728940   817
KUIPER-00301            
1 68598U 26072AB  26099.50624668  .00018553  00000+0  52341-3 0  9995
2 68598  51.8646 149.1136 0008968 132.6902 227.4841 15.36405426   810
KUIPER-00304            
1 68599U 26072AC  26099.44148317  .00019925  00000+0  56272-3 0  9992
2 68599  51.8660 149.4287 0009659 132.2113 227.9694 15.36315237   805
KUIPER-00317            
1 68600U 26072AD  26099.50562237  .00023615  00000+0  65793-3 0  9992
2 68600  51.8680 149.1085 0008709 124.9968 235.1837 15.36638039   813
KUIPER-00320            
1 68601U 26072AE  26099.50837948  .00018603  00000+0  53417-3 0  9998
2 68601  51.8599 149.1270 0011369 138.2508 221.9347 15.35827421   816
STP-S29A OBJECT A       
1 68627U 26074A   26100.41150375  .00010344  00000+0  44422-3 0  9993
2 68627  60.0172  78.1485 0015893 306.0353  53.9254 15.23148308   458
STP-S29A OBJECT B       
1 68628U 26074B   26100.47691300  .00007399  00000+0  32037-3 0  9993
2 68628  60.0220  77.9033 0014216 308.8363  51.1448 15.23264694   450
STP-S29A OBJECT C       
1 68629U 26074C   26100.47611804  .00011754  00000+0  49489-3 0  9994
2 68629  60.0211  77.8979 0017566 315.8718  44.0959 15.23679175   465
