[{"OBJECT_NAME":"KUIPER-00285","OBJECT_ID":"2026-072S","EPOCH":"2026-04-09T12:05:13.384896","MEAN_MOTION":15.37198204,"ECCENTRICITY":0.00065274,"INCLINATION":51.8728,"RA_OF_ASC_NODE":149.0916,"ARG_OF_PERICENTER":123.1301,"MEAN_ANOMALY":237.0313,"EPHEMERIS_TYPE":0,"CLASSIFICATION_TYPE":"U","NORAD_CAT_ID":68589,"ELEMENT_SET_NO":999,"REV_AT_EPOCH":81,"BSTAR":0.00056126272,"MEAN_MOTION_DOT":0.0002044,"MEAN_MOTION_DDOT":0},{"OBJECT_NAME":"KUIPER-00286","OBJECT_ID":"2026-072T","EPOCH":"2026-04-09T12:03:04.845888","MEAN_MOTION":15.37620751,"ECCENTRICITY":0.000428,"INCLINATION":51.8723,"RA_OF_ASC_NODE":149.0813,"ARG_OF_PERICENTER":104.9491,"MEAN_ANOMALY":255.197,"EPHEMERIS_TYPE":0,"CLASSIFICATION_TYPE":"U","NORAD_CAT_ID":68590,"ELEMENT_SET_NO":999,"REV_AT_EPOCH":81,"BSTAR":0.00052325,"MEAN_MOTION_DOT":0.00019286,"MEAN_MOTION_DDOT":0},{"OBJECT_NAME":"KUIPER-00289","OBJECT_ID":"2026-072U","EPOCH":"2026-04-09T12:11:45.098304","MEAN_MOTION":15.35891916,"ECCENTRICITY":0.0011064,"INCLINATION":51.865,"RA_OF_ASC_NODE":149.1255,"ARG_OF_PERICENTER":138.2553,"MEAN_ANOMALY":221.9279,"EPHEMERIS_TYPE":0,"CLASSIFICATION_TYPE":"U","NORAD_CAT_ID":68591,"ELEMENT_SET_NO":999,"REV_AT_EPOCH":81,"BSTAR":0.00052031,"MEAN_MOTION_DOT":0.00018145,"MEAN_MOTION_DDOT":0},{"OBJECT_NAME":"KUIPER-00290","OBJECT_ID":"2026-072V","EPOCH":"2026-04-09T12:11:17.873664","MEAN_MOTION":15.35984232,"ECCENTRICITY":0.00110613,"INCLINATION":51.8635,"RA_OF_ASC_NODE":149.1238,"ARG_OF_PERICENTER":134.7713,"MEAN_ANOMALY":225.4175,"EPHEMERIS_TYPE":0,"CLASSIFICATION_TYPE":"U","NORAD_CAT_ID":68592,"ELEMENT_SET_NO":999,"REV_AT_EPOCH":81,"BSTAR":0.00052367051,"MEAN_MOTION_DOT":0.0001832,"MEAN_MOTION_DDOT":0},{"OBJECT_NAME":"KUIPER-00293","OBJECT_ID":"2026-072W","EPOCH":"2026-04-09T12:13:05.831328","MEAN_MOTION":15.35620815,"ECCENTRICITY":0.0012054,"INCLINATION":51.8633,"RA_OF_ASC_NODE":149.1311,"ARG_OF_PERICENTER":140.9919,"MEAN_ANOMALY":219.1939,"EPHEMERIS_TYPE":0,"CLASSIFICATION_TYPE":"U","NORAD_CAT_ID":68593,"ELEMENT_SET_NO":999,"REV_AT_EPOCH":81,"BSTAR":0.00056351,"MEAN_MOTION_DOT":0.00019522,"MEAN_MOTION_DDOT":0},{"OBJECT_NAME":"KUIPER-00294","OBJECT_ID":"2026-072X","EPOCH":"2026-04-09T12:10:14.658240","MEAN_MOTION":15.36164003,"ECCENTRICITY":0.00098876,"INCLINATION":51.8673,"RA_OF_ASC_NODE":149.1185,"ARG_OF_PERICENTER":135.7594,"MEAN_ANOMALY":224.4184,"EPHEMERIS_TYPE":0,"CLASSIFICATION_TYPE":"U","NORAD_CAT_ID":68594,"ELEMENT_SET_NO":999,"REV_AT_EPOCH":81,"BSTAR":0.00069623201,"MEAN_MOTION_DOT":0.00024641,"MEAN_MOTION_DDOT":0},{"OBJECT_NAME":"KUIPER-00296","OBJECT_ID":"2026-072Y","EPOCH":"2026-04-09T12:08:32.117856","MEAN_MOTION":15.36547435,"ECCENTRICITY":0.00087342,"INCLINATION":51.8694,"RA_OF_ASC_NODE":149.109,"ARG_OF_PERICENTER":129.6166,"MEAN_ANOMALY":230.5593,"EPHEMERIS_TYPE":0,"CLASSIFICATION_TYPE":"U","NORAD_CAT_ID":68595,"ELEMENT_SET_NO":999,"REV_AT_EPOCH":81,"BSTAR":0.00045426457,"MEAN_MOTION_DOT":0.00016119,"MEAN_MOTION_DDOT":0},{"OBJECT_NAME":"KUIPER-00297","OBJECT_ID":"2026-072Z","EPOCH":"2026-04-09T12:10:51.605472","MEAN_MOTION":15.36072717,"ECCENTRICITY":0.0010385,"INCLINATION":51.8622,"RA_OF_ASC_NODE":149.122,"ARG_OF_PERICENTER":136.1757,"MEAN_ANOMALY":224.0055,"EPHEMERIS_TYPE":0,"CLASSIFICATION_TYPE":"U","NORAD_CAT_ID":68596,"ELEMENT_SET_NO":999,"REV_AT_EPOCH":81,"BSTAR":0.00051707768,"MEAN_MOTION_DOT":0.00018132,"MEAN_MOTION_DDOT":0},{"OBJECT_NAME":"KUIPER-00300","OBJECT_ID":"2026-072AA","EPOCH":"2026-04-09T12:07:31.227456","MEAN_MOTION":15.3672894,"ECCENTRICITY":0.0008297,"INCLINATION":51.8667,"RA_OF_ASC_NODE":149.1055,"ARG_OF_PERICENTER":129.8474,"MEAN_ANOMALY":230.3243,"EPHEMERIS_TYPE":0,"CLASSIFICATION_TYPE":"U","NORAD_CAT_ID":68597,"ELEMENT_SET_NO":999,"REV_AT_EPOCH":81,"BSTAR":0.0004702,"MEAN_MOTION_DOT":0.00016797,"MEAN_MOTION_DDOT":0},{"OBJECT_NAME":"KUIPER-00301","OBJECT_ID":"2026-072AB","EPOCH":"2026-04-09T12:08:59.713152","MEAN_MOTION":15.36405426,"ECCENTRICITY":0.00089685,"INCLINATION":51.8646,"RA_OF_ASC_NODE":149.1136,"ARG_OF_PERICENTER":132.6902,"MEAN_ANOMALY":227.4841,"EPHEMERIS_TYPE":0,"CLASSIFICATION_TYPE":"U","NORAD_CAT_ID":68598,"ELEMENT_SET_NO":999,"REV_AT_EPOCH":81,"BSTAR":0.00052341149,"MEAN_MOTION_DOT":0.00018553,"MEAN_MOTION_DDOT":0},{"OBJECT_NAME":"KUIPER-00304","OBJECT_ID":"2026-072AC","EPOCH":"2026-04-09T10:35:44.145888","MEAN_MOTION":15.36315237,"ECCENTRICITY":0.00096595,"INCLINATION":51.866,"RA_OF_ASC_NODE":149.4287,"ARG_OF_PERICENTER":132.2113,"MEAN_ANOMALY":227.9694,"EPHEMERIS_TYPE":0,"CLASSIFICATION_TYPE":"U","NORAD_CAT_ID":68599,"ELEMENT_SET_NO":999,"REV_AT_EPOCH":80,"BSTAR":0.00056272102,"MEAN_MOTION_DOT":0.00019925,"MEAN_MOTION_DDOT":0},{"OBJECT_NAME":"KUIPER-00317","OBJECT_ID":"2026-072AD","EPOCH":"2026-04-09T12:08:05.772768","MEAN_MOTION":15.36638039,"ECCENTRICITY":0.00087096,"INCLINATION":51.868,"RA_OF_ASC_NODE":149.1085,"ARG_OF_PERICENTER":124.9968,"MEAN_ANOMALY":235.1837,"EPHEMERIS_TYPE":0,"CLASSIFICATION_TYPE":"U","NORAD_CAT_ID":68600,"ELEMENT_SET_NO":999,"REV_AT_EPOCH":81,"BSTAR":0.00065792974,"MEAN_MOTION_DOT":0.00023615,"MEAN_MOTION_DDOT":0},{"OBJECT_NAME":"KUIPER-00320","OBJECT_ID":"2026-072AE","EPOCH":"2026-04-09T12:12:03.987072","MEAN_MOTION":15.35827421,"ECCENTRICITY":0.0011369,"INCLINATION":51.8599,"RA_OF_ASC_NODE":149.127,"ARG_OF_PERICENTER":138.2508,"MEAN_ANOMALY":221.9347,"EPHEMERIS_TYPE":0,"CLASSIFICATION_TYPE":"U","NORAD_CAT_ID":68601,"ELEMENT_SET_NO":999,"REV_AT_EPOCH":81,"BSTAR":0.00053417,"MEAN_MOTION_DOT":0.00018603,"MEAN_MOTION_DDOT":0},{"OBJECT_NAME":"STP-S29A OBJECT A","OBJECT_ID":"2026-074A","EPOCH":"2026-04-10T09:52:33.924000","MEAN_MOTION":15.23148308,"ECCENTRICITY":0.0015893,"INCLINATION":60.0172,"RA_OF_ASC_NODE":78.1485,"ARG_OF_PERICENTER":306.0353,"MEAN_ANOMALY":53.9254,"EPHEMERIS_TYPE":0,"CLASSIFICATION_TYPE":"U","NORAD_CAT_ID":68627,"ELEMENT_SET_NO":999,"REV_AT_EPOCH":45,"BSTAR":0.00044422,"MEAN_MOTION_DOT":0.00010344,"MEAN_MOTION_DDOT":0},{"OBJECT_NAME":"STP-S29A OBJECT B","OBJECT_ID":"2026-074B","EPOCH":"2026-04-10T11:26:45.283200","MEAN_MOTION":15.23264694,"ECCENTRICITY":0.0014216,"INCLINATION":60.022,"RA_OF_ASC_NODE":77.9033,"ARG_OF_PERICENTER":308.8363,"MEAN_ANOMALY":51.1448,"EPHEMERIS_TYPE":0,"CLASSIFICATION_TYPE":"U","NORAD_CAT_ID":68628,"ELEMENT_SET_NO":999,"REV_AT_EPOCH":45,"BSTAR":0.00032037,"MEAN_MOTION_DOT":7.399e-5,"MEAN_MOTION_DDOT":0},{"OBJECT_NAME":"STP-S29A OBJECT C","OBJECT_ID":"2026-074C","EPOCH":"2026-04-10T11:25:36.598656","MEAN_MOTION":15.23679175,"ECCENTRICITY":0.0017566,"INCLINATION":60.0211,"RA_OF_ASC_NODE":77.8979,"ARG_OF_PERICENTER":315.8718,"MEAN_ANOMALY":44.0959,"EPHEMERIS_TYPE":0,"CLASSIFICATION_TYPE":"U","NORAD_CAT_ID":68629,"ELEMENT_SET_NO":999,"REV_AT_EPOCH":46,"BSTAR":0.00049489,"MEAN_MOTION_DOT":0.00011754,"MEAN_MOTION_DDOT":0}]
